NORAD_CAT_ID,OBJECT_NAME,OBJECT_TYPE,EPOCH,MEAN_MOTION,ECCENTRICITY,INCLINATION,RA_OF_ASC_NODE,ARG_OF_PERICENTER,MEAN_ANOMALY,BSTAR,MEAN_MOTION_DOT,MEAN_MOTION_DDOT,TLE_LINE0,TLE_LINE1,TLE_LINE2,SEMIMAJOR_AXIS,PERIOD,APOGEE,PERIGEE,DECAYED
56784.0,STARLINK-6354,PAYLOAD,2023-08-26 20:25:32,15.69933586,0.0003434,70.0005,167.0801,265.3716,94.7088,3.05e-05,3.458e-05,0.0,0 STARLINK-6354,1 56784U 23078T   23238.85106541  .00003458  00000-0  30500-4 0  9990,2 56784  70.0005 167.0801 0003434 265.3716  94.7088 15.69933586 13792,6737.224,91.724,361.403,356.775,0.0
56784.0,STARLINK-6354,PAYLOAD,2023-08-27 05:36:03,15.69913319,0.0003147,69.9996,166.0033,268.9076,91.1759,-1.367e-05,-1.855e-05,0.0,0 STARLINK-6354,1 56784U 23078T   23239.23337356 -.00001855  00000-0 -13670-4 0  9993,2 56784  69.9996 166.0033 0003147 268.9076  91.1759 15.69913319 14118,6737.282,91.725,361.267,357.027,0.0
56784.0,STARLINK-6354,PAYLOAD,2023-08-27 20:53:34,15.69929513,0.0003314,70.0003,164.2139,275.57,84.5117,4.0315e-05,4.639e-05,0.0,0 STARLINK-6354,1 56784U 23078T   23239.87053569  .00004639  00000-0  40315-4 0  9991,2 56784  70.0003 164.2139 0003314 275.5700  84.5117 15.69929513 13959,6737.236,91.724,361.333,356.868,0.0
56784.0,STARLINK-6354,PAYLOAD,2023-08-27 22:25:19,15.69930283,0.0003345,69.9996,164.0347,272.1753,87.906,2.5277e-05,2.828e-05,0.0,0 STARLINK-6354,1 56784U 23078T   23239.93425106  .00002828  00000-0  25277-4 0  9996,2 56784  69.9996 164.0347 0003345 272.1753  87.9060 15.69930283 14222,6737.233,91.724,361.352,356.845,0.0
56784.0,STARLINK-6354,PAYLOAD,2023-08-28 04:32:20,15.69922167,0.0003537,70.0004,163.3186,276.1762,83.9031,8.2555e-06,7.8e-06,0.0,0 STARLINK-6354,1 56784U 23078T   23240.18912086  .00000780  00000-0  82555-5 0  9991,2 56784  70.0004 163.3186 0003537 276.1762  83.9031 15.69922167 14265,6737.257,91.724,361.505,356.739,0.0
56784.0,STARLINK-6354,PAYLOAD,2023-08-28 21:21:36,15.69928891,0.000378,69.9996,161.3491,268.1991,91.8771,5.2972e-06,4.24e-06,0.0,0 STARLINK-6354,1 56784U 23078T   23240.89000224  .00000424  00000-0  52972-5 0  9996,2 56784  69.9996 161.3491 0003780 268.1991  91.8771 15.69928891 14117,6737.237,91.724,361.649,356.556,0.0
56784.0,STARLINK-6354,PAYLOAD,2023-08-29 05:00:22,15.69927525,0.0003585,69.9998,160.4516,263.6502,96.4286,1.8234e-05,1.981e-05,0.0,0 STARLINK-6354,1 56784U 23078T   23241.20858931  .00001981  00000-0  18234-4 0  9999,2 56784  69.9998 160.4516 0003585 263.6502  96.4286 15.69927525 14427,6737.241,91.724,361.522,356.691,0.0
56784.0,STARLINK-6354,PAYLOAD,2023-08-29 21:49:38,15.69921824,0.0003238,70.001,158.4808,274.6517,85.4309,2.8432e-05,3.207e-05,0.0,0 STARLINK-6354,1 56784U 23078T   23241.90947618  .00003207  00000-0  28432-4 0  9991,2 56784  70.0010 158.4808 0003238 274.6517  85.4309 15.69921824 14531,6737.258,91.724,361.304,356.941,0.0
56784.0,STARLINK-6354,PAYLOAD,2023-08-30 11:35:25,15.69919643,0.0003233,69.9986,156.8699,273.5354,86.5471,3.0638e-05,3.472e-05,0.0,0 STARLINK-6354,1 56784U 23078T   23242.48292882  .00003472  00000-0  30638-4 0  9996,2 56784  69.9986 156.8699 0003233 273.5354  86.5471 15.69919643 14361,6737.264,91.724,361.307,356.951,0.0
56784.0,STARLINK-6354,PAYLOAD,2023-08-31 04:24:40,15.69928657,0.0004663,70.0004,154.8999,259.8772,100.1898,2.2026e-05,2.437e-05,0.0,0 STARLINK-6354,1 56784U 23078T   23243.18380167  .00002437  00000-0  22026-4 0  9990,2 56784  70.0004 154.8999 0004663 259.8772 100.1898 15.69928657 14737,6737.238,91.724,362.245,355.962,0.0
56784.0,STARLINK-6354,PAYLOAD,2023-09-01 10:59:44,15.69905928,0.0003431,69.9972,151.319,264.9789,95.1015,3.7752e-05,4.326e-05,0.0,0 STARLINK-6354,1 56784U 23078T   23244.45815233  .00004326  00000-0  37752-4 0  9999,2 56784  69.9972 151.3190 0003431 264.9789  95.1015 15.69905928 14932,6737.303,91.725,361.48,356.857,0.0
56784.0,STARLINK-6354,PAYLOAD,2023-09-02 03:48:59,15.69924244,0.0003894,69.9988,149.3455,264.5154,95.5598,6.0231e-06,5.11e-06,0.0,0 STARLINK-6354,1 56784U 23078T   23245.15902467  .00000511  00000-0  60231-5 0  9994,2 56784  69.9988 149.3455 0003894 264.5154  95.5598 15.69924244 15040,6737.251,91.724,361.739,356.492,0.0
56784.0,STARLINK-6354,PAYLOAD,2023-09-02 19:06:27,15.7001725,0.0004081,69.9982,147.5553,261.4362,98.6371,0.00019343,0.00023203,0.0,0 STARLINK-6354,1 56784U 23078T   23245.79614877  .00023203  00000-0  19343-3 0  9998,2 56784  69.9982 147.5553 0004081 261.4362  98.6371 15.70017250 14885,6736.985,91.719,361.599,356.1,0.0
56784.0,STARLINK-6354,PAYLOAD,2023-09-03 02:45:18,15.69879658,0.0003695,70.0001,146.6566,256.5972,103.4812,-0.00015751,-0.00019076,0.0,0 STARLINK-6354,1 56784U 23078T   23246.11479374 -.00019076  00000-0 -15751-3 0  9990,2 56784  70.0001 146.6566 0003695 256.5972 103.4812 15.69879658 15192,6737.378,91.727,361.733,356.754,0.0
56784.0,STARLINK-6354,PAYLOAD,2023-09-03 07:20:32,15.69915728,0.0003636,69.997,146.1215,262.0719,98.0064,-8.8973e-06,-1.282e-05,0.0,0 STARLINK-6354,1 56784U 23078T   23246.30592983 -.00001282  00000-0 -88973-5 0  9991,2 56784  69.9970 146.1215 0003636 262.0719  98.0064 15.69915728 15227,6737.275,91.725,361.59,356.69,0.0
56784.0,STARLINK-6354,PAYLOAD,2023-09-04 00:09:48,15.69933793,0.0003675,69.9975,144.1498,268.2078,91.8697,2.7192e-05,3.059e-05,0.0,0 STARLINK-6354,1 56784U 23078T   23247.00680861  .00003059  00000-0  27192-4 0  9999,2 56784  69.9975 144.1498 0003675 268.2078  91.8697 15.69933793 15339,6737.223,91.724,361.564,356.612,0.0
56784.0,STARLINK-6354,PAYLOAD,2023-09-04 10:52:04,15.69924331,0.0003665,69.9967,142.8969,265.6793,94.3984,8.5296e-06,8.13e-06,0.0,0 STARLINK-6354,1 56784U 23078T   23247.45282999  .00000813  00000-0  85296-5 0  9993,2 56784  69.9967 142.8969 0003665 265.6793  94.3984 15.69924331 15146,6737.25,91.724,361.585,356.646,0.0
56784.0,STARLINK-6354,PAYLOAD,2023-09-04 16:59:04,15.69926529,0.0003825,69.9985,142.1802,272.1194,87.9564,2.5832e-05,2.895e-05,0.0,0 STARLINK-6354,1 56784U 23078T   23247.70769649  .00002895  00000-0  25832-4 0  9994,2 56784  69.9985 142.1802 0003825 272.1194  87.9564 15.69926529 15447,6737.244,91.724,361.686,356.532,0.0
56784.0,STARLINK-6354,PAYLOAD,2023-09-05 03:41:20,15.69932851,0.0003701,69.9966,140.926,264.1725,95.9049,4.4249e-06,3.19e-06,0.0,0 STARLINK-6354,1 56784U 23078T   23248.15370897  .00000319  00000-0  44249-5 0  9990,2 56784  69.9966 140.9260 0003701 264.1725  95.9049 15.69932851 15255,6737.226,91.724,361.585,356.598,0.0
56784.0,STARLINK-6354,PAYLOAD,2023-09-06 02:37:37,15.69934065,0.0003339,69.9986,138.238,270.7624,89.3189,1.403e-05,1.475e-05,0.0,0 STARLINK-6354,1 56784U 23078T   23249.10946129  .00001475  00000-0  14030-4 0  9991,2 56784  69.9986 138.2380 0003339 270.7624  89.3189 15.69934065 15664,6737.223,91.724,361.337,356.838,0.0
56784.0,STARLINK-6354,PAYLOAD,2023-09-07 03:05:39,15.69933182,0.0003075,69.9992,135.3713,271.0692,89.0152,2.7778e-07,-1.79e-06,0.0,0 STARLINK-6354,1 56784U 23078T   23250.12892879 -.00000179  00000-0  27778-6 0  9993,2 56784  69.9992 135.3713 0003075 271.0692  89.0152 15.69933182 15829,6737.225,91.724,361.162,357.018,0.0
56784.0,STARLINK-6354,PAYLOAD,2023-09-08 02:01:58,15.69885878,0.0003261,69.9999,132.6844,288.004,72.08,-4.0818e-05,-5.11e-05,0.0,0 STARLINK-6354,1 56784U 23078T   23251.08470449 -.00005110  00000-0 -40818-4 0  9993,2 56784  69.9999 132.6844 0003261 288.0040  72.0800 15.69885878 15979,6737.361,91.726,361.423,357.028,0.0
56784.0,STARLINK-6354,PAYLOAD,2023-09-09 02:29:58,15.69925019,0.0003362,69.9999,129.8168,272.7277,87.3534,1.89e-05,2.06e-05,0.0,0 STARLINK-6354,1 56784U 23078T   23252.10415272  .00002060  00000-0  18900-4 0  9996,2 56784  69.9999 129.8168 0003362 272.7277  87.3534 15.69925019 16134,6737.249,91.724,361.379,356.848,0.0
56784.0,STARLINK-6354,PAYLOAD,2023-09-10 01:26:15,15.6992505,0.0003551,69.9989,127.1304,270.247,89.8319,1.3718e-05,1.437e-05,0.0,0 STARLINK-6354,1 56784U 23078T   23253.05990144  .00001437  00000-0  13718-4 0  9996,2 56784  69.9989 127.1304 0003551 270.2470  89.8319 15.69925050 16025,6737.248,91.724,361.506,356.721,0.0
56784.0,STARLINK-6354,PAYLOAD,2023-09-10 18:15:32,15.69918361,0.0003111,69.9975,125.1605,263.2418,96.8424,1.7736e-05,1.92e-05,0.0,0 STARLINK-6354,1 56784U 23078T   23253.76079192  .00001920  00000-0  17736-4 0  9996,2 56784  69.9975 125.1605 0003111 263.2418  96.8424 15.69918361 16390,6737.268,91.725,361.229,357.037,0.0
56784.0,STARLINK-6354,PAYLOAD,2023-09-11 01:54:17,15.69928891,0.0002718,69.9986,124.2644,257.7558,102.3333,2.7927e-05,3.147e-05,0.0,0 STARLINK-6354,1 56784U 23078T   23254.07937022  .00003147  00000-0  27927-4 0  9992,2 56784  69.9986 124.2644 0002718 257.7558 102.3333 15.69928891 16447,6737.237,91.724,360.934,357.271,0.0
56784.0,STARLINK-6354,PAYLOAD,2023-09-12 00:50:34,15.69927139,0.0002989,69.9961,121.5769,260.2728,99.813,-1.2279e-05,-1.689e-05,0.0,0 STARLINK-6354,1 56784U 23078T   23255.03512275 -.00001689  00000-0 -12279-4 0  9993,2 56784  69.9961 121.5769 0002989 260.2728  99.8130 15.69927139 16591,6737.242,91.724,361.121,357.094,0.0
56784.0,STARLINK-6354,PAYLOAD,2023-09-12 17:39:50,15.69927119,0.0003435,69.9961,119.6058,268.3265,91.7537,9.7821e-07,-9.5e-07,0.0,0 STARLINK-6354,1 56784U 23078T   23255.73600600 -.00000095  00000-0  97821-6 0  9997,2 56784  69.9961 119.6058 0003435 268.3265  91.7537 15.69927119 16446,6737.243,91.724,361.422,356.793,0.0
56784.0,STARLINK-6354,PAYLOAD,2023-09-13 01:18:35,15.69936503,0.0003445,69.9973,118.7119,266.9675,93.1126,1.3371e-05,1.396e-05,0.0,0 STARLINK-6354,1 56784U 23078T   23256.05458041  .00001396  00000-0  13371-4 0  9993,2 56784  69.9973 118.7119 0003445 266.9675  93.1126 15.69936503 16758,6737.216,91.723,361.402,356.76,0.0
56784.0,STARLINK-6354,PAYLOAD,2023-09-13 18:07:53,15.69918433,0.000386,69.9966,116.7401,271.9538,88.1215,9.077e-06,8.78e-06,0.0,0 STARLINK-6354,1 56784U 23078T   23256.75547485  .00000878  00000-0  90770-5 0  9994,2 56784  69.9966 116.7401 0003860 271.9538  88.1215 15.69918433 16864,6737.267,91.725,361.733,356.532,0.0
